[{"OBJECT_NAME":"STARLINK-1036","OBJECT_ID":"2019-074AE","EPOCH":"2026-03-09T14:42:34.223904","MEAN_MOTION":15.55884463,"ECCENTRICITY":0.000315,"INCLINATION":53.0505,"RA_OF_ASC_NODE":188.9272,"ARG_OF_PERICENTER":274.6586,"MEAN_ANOMALY":85.4064,"EPHEMERIS_TYPE":0,"CLASSIFICATION_TYPE":"U","NORAD_CAT_ID":44741,"ELEMENT_SET_NO":999,"REV_AT_EPOCH":34871,"BSTAR":0.0018957,"MEAN_MOTION_DOT":0.00135506,"MEAN_MOTION_DDOT":0},{"OBJECT_NAME":"STARLINK-1272","OBJECT_ID":"2020-019AC","EPOCH":"2026-03-10T00:00:02.999808","MEAN_MOTION":15.5656706,"ECCENTRICITY":0.0002298,"INCLINATION":53.0436,"RA_OF_ASC_NODE":108.276,"ARG_OF_PERICENTER":118.6514,"MEAN_ANOMALY":302.4377,"EPHEMERIS_TYPE":0,"CLASSIFICATION_TYPE":"U","NORAD_CAT_ID":45386,"ELEMENT_SET_NO":999,"REV_AT_EPOCH":593,"BSTAR":0.0024505929,"MEAN_MOTION_DOT":0.00180827,"MEAN_MOTION_DDOT":0}]
