{"fetched_at": "2026-03-10T12:39:04.751901+00:00", "count": 377, "satellites": [ {"name": "STARLINK-1036", "tle1": "1 44741U 19074AE  26068.61289611  .00135506  00000+0  18957-2 0  9998", "tle2": "2 44741  53.0505 188.9272 0003150 274.6586  85.4064 15.55884463348713", "norad_id": 44741, "group": "starlink", "highlight": false}, {"name": "STARLINK-1272", "tle1": "1 45386U 20019AC  26069.00003471  .00180827  00000+0  24506-2 0  9990", "tle2": "2 45386  53.0436 108.2760 0002298 118.6514 302.4377 15.56567060  5934", "norad_id": 45386, "group": "starlink", "highlight": false}]}